{
    "links": {
        "self": "http://www.neowsapp.com/rest/v1/neo/3989210?api_key=iIulBulltgU6a56xZRHN4H3l9WmuAYTsLGpBGhQ2"
    },
    "id": "3989210",
    "neo_reference_id": "3989210",
    "name": "(2020 BK9)",
    "designation": "2020 BK9",
    "nasa_jpl_url": "http://ssd.jpl.nasa.gov/sbdb.cgi?sstr=3989210",
    "absolute_magnitude_h": 21.021,
    "estimated_diameter": {
        "kilometers": {
            "estimated_diameter_min": 0.1660943948,
            "estimated_diameter_max": 0.3713983575
        },
        "meters": {
            "estimated_diameter_min": 166.0943948292,
            "estimated_diameter_max": 371.3983575199
        },
        "miles": {
            "estimated_diameter_min": 0.1032062402,
            "estimated_diameter_max": 0.2307761688
        },
        "feet": {
            "estimated_diameter_min": 544.9291343316,
            "estimated_diameter_max": 1218.4985872856
        }
    },
    "is_potentially_hazardous_asteroid": false,
    "close_approach_data": [
        {
            "close_approach_date": "1976-02-06",
            "close_approach_date_full": "1976-Feb-06 21:37",
            "epoch_date_close_approach": 192490620000,
            "relative_velocity": {
                "kilometers_per_second": "12.5561249316",
                "kilometers_per_hour": "45202.049753926",
                "miles_per_hour": "28086.7958595992"
            },
            "miss_distance": {
                "astronomical": "0.2454194849",
                "lunar": "95.4681796261",
                "kilometers": "36714232.197537163",
                "miles": "22813166.0269843294"
            },
            "orbiting_body": "Earth"
        },
        {
            "close_approach_date": "1993-01-29",
            "close_approach_date_full": "1993-Jan-29 10:02",
            "epoch_date_close_approach": 728301720000,
            "relative_velocity": {
                "kilometers_per_second": "16.6898681801",
                "kilometers_per_hour": "60083.5254484036",
                "miles_per_hour": "37333.5661320928"
            },
            "miss_distance": {
                "astronomical": "0.2391744113",
                "lunar": "93.0388459957",
                "kilometers": "35779982.488983931",
                "miles": "22232650.1769670078"
            },
            "orbiting_body": "Earth"
        },
        {
            "close_approach_date": "2037-02-03",
            "close_approach_date_full": "2037-Feb-03 21:09",
            "epoch_date_close_approach": 2117308140000,
            "relative_velocity": {
                "kilometers_per_second": "13.5019958242",
                "kilometers_per_hour": "48607.1849672032",
                "miles_per_hour": "30202.6144592047"
            },
            "miss_distance": {
                "astronomical": "0.1983333424",
                "lunar": "77.1516701936",
                "kilometers": "29670245.573020688",
                "miles": "18436235.6994659744"
            },
            "orbiting_body": "Earth"
        },
        {
            "close_approach_date": "2172-02-06",
            "close_approach_date_full": "2172-Feb-06 12:47",
            "epoch_date_close_approach": 6377662020000,
            "relative_velocity": {
                "kilometers_per_second": "12.7900822202",
                "kilometers_per_hour": "46044.2959927315",
                "miles_per_hour": "28610.1349183725"
            },
            "miss_distance": {
                "astronomical": "0.2159563743",
                "lunar": "84.0070296027",
                "kilometers": "32306613.608202741",
                "miles": "20074398.8338941858"
            },
            "orbiting_body": "Earth"
        },
        {
            "close_approach_date": "2199-02-02",
            "close_approach_date_full": "2199-Feb-02 11:10",
            "epoch_date_close_approach": 7229387400000,
            "relative_velocity": {
                "kilometers_per_second": "14.456434901",
                "kilometers_per_hour": "52043.1656434888",
                "miles_per_hour": "32337.5992299778"
            },
            "miss_distance": {
                "astronomical": "0.1775826213",
                "lunar": "69.0796396857",
                "kilometers": "26565981.895496631",
                "miles": "16507335.6945342678"
            },
            "orbiting_body": "Earth"
        }
    ],
    "orbital_data": {
        "orbit_id": "2",
        "orbit_determination_date": "2020-02-27 10:08:33",
        "first_observation_date": "2020-01-21",
        "last_observation_date": "2020-02-27",
        "data_arc_in_days": 37,
        "observations_used": 17,
        "orbit_uncertainty": "6",
        "minimum_orbit_intersection": ".191206",
        "jupiter_tisserand_invariant": "3.341",
        "epoch_osculation": "2459000.5",
        "eccentricity": ".5293928302346407",
        "semi_major_axis": "2.256474515548097",
        "inclination": "22.06616808347674",
        "ascending_node_longitude": "118.5015818836872",
        "orbital_period": "1238.066796151958",
        "perihelion_distance": "1.06191308540975",
        "perihelion_argument": "53.10417282862115",
        "aphelion_distance": "3.451035945686444",
        "perihelion_time": "2458949.862865898829",
        "mean_anomaly": "14.7240587770228",
        "mean_motion": ".2907759105719642",
        "equinox": "J2000",
        "orbit_class": {
            "orbit_class_type": "AMO",
            "orbit_class_description": "Near-Earth asteroid orbits similar to that of 1221 Amor",
            "orbit_class_range": "1.017 AU < q (perihelion) < 1.3 AU"
        }
    },
    "is_sentry_object": false
}